tleArray_g = [ {"id": 34038, "Line1": "1 34038U 93036HZ  21274.97005964  .00003220  00000-0  75008-3 0  9995", "Line2": "2 34038  74.0627  95.5983 0032451 128.8150 231.5919 14.54911405665815"}, {"id": 34040, "Line1": "1 34040U 93036JB  21274.85134250  .00000570  00000-0  49948-3 0  9995", "Line2": "2 34040  73.9593  63.2131 0358220 320.9863  36.5893 13.62287905626872"}, {"id": 34042, "Line1": "1 34042U 93036JD  21274.85154826  .00032869  00000-0  98043-3 0  9994", "Line2": "2 34042  73.8788 315.9396 0038101 262.6235  97.0638 15.33764641689951"}, {"id": 34045, "Line1": "1 34045U 93036JG  21275.03088181  .00000052  00000-0  28327-4 0  9996", "Line2": "2 34045  74.0385 232.1926 0027577 328.7458 101.8239 14.32940379660733"}, {"id": 34046, "Line1": "1 34046U 93036JH  21274.87240449  .00000635  00000-0  23736-3 0  9990", "Line2": "2 34046  74.0412 308.2470 0099286  45.9109 128.0367 14.31112251658303"}, {"id": 34050, "Line1": "1 34050U 93036JM  21274.98012234  .00000373  00000-0  25381-3 0  9993", "Line2": "2 34050  74.0888 106.8217 0228310 179.9670 303.4385 13.91370790641040"}, {"id": 34051, "Line1": "1 34051U 93036JN  21274.65832717  .00002008  00000-0  29589-3 0  9995", "Line2": "2 34051  73.9860 121.0855 0053044 329.5572  30.2524 14.75149489675342"}, {"id": 34053, "Line1": "1 34053U 93036JQ  21274.78571809  .00000011  00000-0  32944-4 0  9995", "Line2": "2 34053  73.8465 186.3790 0431986 230.2278 126.0034 13.46647752620323"}, {"id": 34054, "Line1": "1 34054U 93036JR  21274.68317799  .00001582  00000-0  34712-3 0  9999", "Line2": "2 34054  74.0384 350.4303 0029094 115.3459   4.3969 14.58193370668703"}, {"id": 34055, "Line1": "1 34055U 93036JS  21274.63522326  .00001524  00000-0  28742-3 0  9991", "Line2": "2 34055  74.1110   9.3327 0087153  12.4971 115.5969 14.63011838669298"}, {"id": 34056, "Line1": "1 34056U 93036JT  21275.06893861  .00000866  00000-0  46750-3 0  9992", "Line2": "2 34056  74.0643 263.4719 0151262 321.4975 106.5472 14.08499959647778"}, {"id": 34057, "Line1": "1 34057U 93036JU  21274.76742880  .00001171  00000-0  27119-3 0  9991", "Line2": "2 34057  74.0231  27.8437 0028447 150.4827   6.3487 14.56028120667221"}, {"id": 34058, "Line1": "1 34058U 93036JV  21275.11223753  .00000305  00000-0  30080-3 0  9994", "Line2": "2 34058  73.9331 136.6336 0383676  61.9478 101.8715 13.53769408624005"}, {"id": 34059, "Line1": "1 34059U 93036JW  21274.85594198  .00000600  00000-0  19410-3 0  9991", "Line2": "2 34059  74.0446 163.2800 0022913 257.0288 181.8151 14.41039296663095"}, {"id": 34061, "Line1": "1 34061U 93036JY  21274.93529803  .00000274  00000-0  10305-3 0  9995", "Line2": "2 34061  74.0421 204.5389 0022881 298.5713 129.3163 14.36053895661519"}, {"id": 34062, "Line1": "1 34062U 93036JZ  21274.84128374  .00000895  00000-0  24123-3 0  9996", "Line2": "2 34062  74.0421 162.8560 0139518 266.2850 170.4578 14.43890678662937"}, {"id": 34064, "Line1": "1 34064U 93036KB  21275.11614178  .00000370  00000-0  13669-3 0  9992", "Line2": "2 34064  74.0353 215.4527 0025729 296.0768  76.5469 14.35729499661205"}, {"id": 34065, "Line1": "1 34065U 93036KC  21274.93110031  .00000104  00000-0  44977-4 0  9993", "Line2": "2 34065  74.0378 195.4642 0017844 308.1029 124.7105 14.35895756661913"}, {"id": 34066, "Line1": "1 34066U 93036KD  21274.62565292  .00004896  00000-0  96035-3 0  9996", "Line2": "2 34066  74.0003 236.4854 0244887  36.8636 136.9771 14.45618678658904"}, {"id": 34069, "Line1": "1 34069U 93036KG  21274.87687400  .00004162  00000-0  66882-3 0  9995", "Line2": "2 34069  74.0154 205.0588 0036022   6.0435 354.1163 14.71501408673071"}, {"id": 34070, "Line1": "1 34070U 93036KH  21274.75254028  .00001052  00000-0  31168-3 0  9994", "Line2": "2 34070  74.0125 143.3940 0038373 261.4794 171.1948 14.44224240663144"}, {"id": 34114, "Line1": "1 34114U 93036KK  21274.65774062  .00000971  00000-0  36883-3 0  9995", "Line2": "2 34114  74.0696 351.2160 0073950  17.7683 102.2021 14.30852544657362"}, {"id": 34115, "Line1": "1 34115U 93036KL  21274.44468757  .00000849  00000-0  19488-3 0  9990", "Line2": "2 34115  74.0160 313.4078 0042537 161.1712 199.1037 14.56563608669656"}, {"id": 34116, "Line1": "1 34116U 93036KM  21274.78378220  .00000600  00000-0  19333-3 0  9997", "Line2": "2 34116  74.0466 160.1901 0016137 252.5642 170.6726 14.41337875663339"}, {"id": 34117, "Line1": "1 34117U 93036KN  21274.70668860  .00000572  00000-0  21739-3 0  9993", "Line2": "2 34117  74.0397 273.8559 0064807   4.5849 355.5881 14.32116916661307"}, {"id": 34118, "Line1": "1 34118U 93036KP  21274.92395541  .00001207  00000-0  26359-3 0  9990", "Line2": "2 34118  73.9693 341.3577 0120577 173.0997   1.7688 14.54553727666982"}, {"id": 34119, "Line1": "1 34119U 93036KQ  21274.66975295  .00002704  00000-0  68324-3 0  9993", "Line2": "2 34119  74.0449 134.5511 0032408 169.1086 247.6845 14.51182752663205"}, {"id": 34120, "Line1": "1 34120U 93036KR  21274.59269639  .00000109  00000-0  82787-4 0  9992", "Line2": "2 34120  73.9956 345.9813 0185710 148.0486 323.4940 13.96458049645657"}, {"id": 34121, "Line1": "1 34121U 93036KS  21274.86443007  .00000990  00000-0  70650-3 0  9999", "Line2": "2 34121  73.9989 182.0654 0260183 355.2542  71.8933 13.83642870638729"}, {"id": 34122, "Line1": "1 34122U 93036KT  21274.84595255  .00001058  00000-0  28748-3 0  9998", "Line2": "2 34122  74.0427 127.0498 0114467  51.5591 322.0951 14.44979327664332"}];