OBJECT_NAME,OBJECT_ID,EPOCH,MEAN_MOTION,ECCENTRICITY,INCLINATION,RA_OF_ASC_NODE,ARG_OF_PERICENTER,MEAN_ANOMALY,EPHEMERIS_TYPE,CLASSIFICATION_TYPE,NORAD_CAT_ID,ELEMENT_SET_NO,REV_AT_EPOCH,BSTAR,MEAN_MOTION_DOT,MEAN_MOTION_DDOT
COSMOS 2251 DEB,1993-036HZ,2021-10-01T23:16:53.152896,14.54911405,.0032451,74.0627,95.5983,128.8150,231.5919,0,U,34038,999,66581,.75008E-3,.322E-4,0
COSMOS 2251 DEB,1993-036JB,2021-10-01T20:25:55.992000,13.62287905,.035822,73.9593,63.2131,320.9863,36.5893,0,U,34040,999,62687,.49948E-3,.57E-5,0
COSMOS 2251 DEB,1993-036JD,2021-10-01T20:26:13.769664,15.33764641,.0038101,73.8788,315.9396,262.6235,97.0638,0,U,34042,999,68995,.98043E-3,.32869E-3,0
COSMOS 2251 DEB,1993-036JG,2021-10-02T00:44:28.188384,14.32940379,.0027577,74.0385,232.1926,328.7458,101.8239,0,U,34045,999,66073,.28327E-4,.52E-6,0
COSMOS 2251 DEB,1993-036JH,2021-10-01T20:56:15.747936,14.31112251,.0099286,74.0412,308.2470,45.9109,128.0367,0,U,34046,999,65830,.23736E-3,.635E-5,0
COSMOS 2251 DEB,1993-036JM,2021-10-01T23:31:22.570176,13.91370790,.022831,74.0888,106.8217,179.9670,303.4385,0,U,34050,999,64104,.25381E-3,.373E-5,0
COSMOS 2251 DEB,1993-036JN,2021-10-01T15:47:59.467488,14.75149489,.0053044,73.9860,121.0855,329.5572,30.2524,0,U,34051,999,67534,.29589E-3,.2008E-4,0
COSMOS 2251 DEB,1993-036JQ,2021-10-01T18:51:26.042976,13.46647752,.0431986,73.8465,186.3790,230.2278,126.0034,0,U,34053,999,62032,.32944E-4,.11E-6,0
COSMOS 2251 DEB,1993-036JR,2021-10-01T16:23:46.578336,14.58193370,.0029094,74.0384,350.4303,115.3459,4.3969,0,U,34054,999,66870,.34712E-3,.1582E-4,0
COSMOS 2251 DEB,1993-036JS,2021-10-01T15:14:43.289664,14.63011838,.0087153,74.1110,9.3327,12.4971,115.5969,0,U,34055,999,66929,.28742E-3,.1524E-4,0
COSMOS 2251 DEB,1993-036JT,2021-10-02T01:39:16.295904,14.08499959,.0151262,74.0643,263.4719,321.4975,106.5472,0,U,34056,999,64777,.4675E-3,.866E-5,0
COSMOS 2251 DEB,1993-036JU,2021-10-01T18:25:05.848320,14.56028120,.0028447,74.0231,27.8437,150.4827,6.3487,0,U,34057,999,66722,.27119E-3,.1171E-4,0
COSMOS 2251 DEB,1993-036JV,2021-10-02T02:41:37.322592,13.53769408,.0383676,73.9331,136.6336,61.9478,101.8715,0,U,34058,999,62400,.3008E-3,.305E-5,0
COSMOS 2251 DEB,1993-036JW,2021-10-01T20:32:33.387072,14.41039296,.0022913,74.0446,163.2800,257.0288,181.8151,0,U,34059,999,66309,.1941E-3,.6E-5,0
COSMOS 2251 DEB,1993-036JY,2021-10-01T22:26:49.749792,14.36053895,.0022881,74.0421,204.5389,298.5713,129.3163,0,U,34061,999,66151,.10305E-3,.274E-5,0
COSMOS 2251 DEB,1993-036JZ,2021-10-01T20:11:26.915136,14.43890678,.0139518,74.0421,162.8560,266.2850,170.4578,0,U,34062,999,66293,.24123E-3,.895E-5,0
COSMOS 2251 DEB,1993-036KB,2021-10-02T02:47:14.649792,14.35729499,.0025729,74.0353,215.4527,296.0768,76.5469,0,U,34064,999,66120,.13669E-3,.37E-5,0
COSMOS 2251 DEB,1993-036KC,2021-10-01T22:20:47.066784,14.35895756,.0017844,74.0378,195.4642,308.1029,124.7105,0,U,34065,999,66191,.44977E-4,.104E-5,0
COSMOS 2251 DEB,1993-036KD,2021-10-01T15:00:56.412288,14.45618678,.0244887,74.0003,236.4854,36.8636,136.9771,0,U,34066,999,65890,.96035E-3,.4896E-4,0
COSMOS 2251 DEB,1993-036KG,2021-10-01T21:02:41.913600,14.71501408,.0036022,74.0154,205.0588,6.0435,354.1163,0,U,34069,999,67307,.66882E-3,.4162E-4,0
COSMOS 2251 DEB,1993-036KH,2021-10-01T18:03:39.480192,14.44224240,.0038373,74.0125,143.3940,261.4794,171.1948,0,U,34070,999,66314,.31168E-3,.1052E-4,0
COSMOS 2251 DEB,1993-036KK,2021-10-01T15:47:08.789568,14.30852544,.007395,74.0696,351.2160,17.7683,102.2021,0,U,34114,999,65736,.36883E-3,.971E-5,0
COSMOS 2251 DEB,1993-036KL,2021-10-01T10:40:21.006048,14.56563608,.0042537,74.0160,313.4078,161.1712,199.1037,0,U,34115,999,66965,.19488E-3,.849E-5,0
COSMOS 2251 DEB,1993-036KM,2021-10-01T18:48:38.782080,14.41337875,.0016137,74.0466,160.1901,252.5642,170.6726,0,U,34116,999,66333,.19333E-3,.6E-5,0
COSMOS 2251 DEB,1993-036KN,2021-10-01T16:57:37.895040,14.32116916,.0064807,74.0397,273.8559,4.5849,355.5881,0,U,34117,999,66130,.21739E-3,.572E-5,0
COSMOS 2251 DEB,1993-036KP,2021-10-01T22:10:29.747424,14.54553727,.0120577,73.9693,341.3577,173.0997,1.7688,0,U,34118,999,66698,.26359E-3,.1207E-4,0
COSMOS 2251 DEB,1993-036KQ,2021-10-01T16:04:26.654880,14.51182752,.0032408,74.0449,134.5511,169.1086,247.6845,0,U,34119,999,66320,.68324E-3,.2704E-4,0
COSMOS 2251 DEB,1993-036KR,2021-10-01T14:13:28.968096,13.96458049,.018571,73.9956,345.9813,148.0486,323.4940,0,U,34120,999,64565,.82787E-4,.109E-5,0
COSMOS 2251 DEB,1993-036KS,2021-10-01T20:44:46.758048,13.83642870,.0260183,73.9989,182.0654,355.2542,71.8933,0,U,34121,999,63872,.7065E-3,.99E-5,0
COSMOS 2251 DEB,1993-036KT,2021-10-01T20:18:10.300320,14.44979327,.0114467,74.0427,127.0498,51.5591,322.0951,0,U,34122,999,66433,.28748E-3,.1058E-4,0
